[{"OBJECT_NAME":"CELESTIS-17 & SHERPA-FX1","OBJECT_ID":"2021-006CB","EPOCH":"2026-03-09T15:26:05.078112","MEAN_MOTION":15.30994801,"ECCENTRICITY":0.000663,"INCLINATION":97.2397,"RA_OF_ASC_NODE":112.1052,"ARG_OF_PERICENTER":178.1385,"MEAN_ANOMALY":181.9882,"EPHEMERIS_TYPE":0,"CLASSIFICATION_TYPE":"U","NORAD_CAT_ID":47486,"ELEMENT_SET_NO":999,"REV_AT_EPOCH":28406,"BSTAR":0.00024301,"MEAN_MOTION_DOT":7.207e-5,"MEAN_MOTION_DDOT":0},{"OBJECT_NAME":"STARLINK-35724","OBJECT_ID":"2025-247Q","EPOCH":"2026-03-09T15:33:46.221696","MEAN_MOTION":15.30175525,"ECCENTRICITY":0.00011363,"INCLINATION":53.1588,"RA_OF_ASC_NODE":191.9012,"ARG_OF_PERICENTER":87.934,"MEAN_ANOMALY":272.1791,"EPHEMERIS_TYPE":0,"CLASSIFICATION_TYPE":"U","NORAD_CAT_ID":66279,"ELEMENT_SET_NO":999,"REV_AT_EPOCH":2102,"BSTAR":0.00016971077,"MEAN_MOTION_DOT":4.667e-5,"MEAN_MOTION_DDOT":0}]
